[{"OBJECT_NAME":"STARLINK-32377","OBJECT_ID":"2024-204Q","EPOCH":"2026-03-09T10:56:32.334720","MEAN_MOTION":15.30191472,"ECCENTRICITY":7.002e-5,"INCLINATION":53.1601,"RA_OF_ASC_NODE":128.0286,"ARG_OF_PERICENTER":64.339,"MEAN_ANOMALY":295.7684,"EPHEMERIS_TYPE":0,"CLASSIFICATION_TYPE":"U","NORAD_CAT_ID":61888,"ELEMENT_SET_NO":999,"REV_AT_EPOCH":7505,"BSTAR":-1.1329003e-5,"MEAN_MOTION_DOT":-6.94e-6,"MEAN_MOTION_DDOT":0},{"OBJECT_NAME":"239ALFEROV (RS61S)","OBJECT_ID":"2025-155F","EPOCH":"2026-03-09T21:46:33.382848","MEAN_MOTION":15.29933217,"ECCENTRICITY":0.00084878,"INCLINATION":97.4469,"RA_OF_ASC_NODE":37.6373,"ARG_OF_PERICENTER":151.5904,"MEAN_ANOMALY":208.58,"EPHEMERIS_TYPE":0,"CLASSIFICATION_TYPE":"U","NORAD_CAT_ID":64881,"ELEMENT_SET_NO":999,"REV_AT_EPOCH":6561,"BSTAR":0.00067233359,"MEAN_MOTION_DOT":0.00019457,"MEAN_MOTION_DDOT":0}]
